STARLINK-2613_new
1 18353C 21038A   21326.13438809  .00009004  00000-0  60328-3 0  3266
2 18353  53.0526 203.1454 0001954  78.9747 135.0227 15.06387385    13
STARLINK-2613_old
1 28353C 21038A   21325.13750298  .00022423  00000-0  15032-2 0  3254
2 28353  53.0539 207.6132 0002023  75.9453 128.9635 15.06354838    19
